LEMUR-2-FURIAUS         
1 42840U 17042R   26068.96143223  .00025928  00000+0  99966-3 0  9991
2 42840  97.3753 248.4990 0007537  55.8686 304.3266 15.26272951473053
STARLINK-35467          
1 66343U 25253AA  26068.44083973  .00032410  00000+0  11817-2 0  9998
2 66343  43.0020 214.1513 0003308 304.5350  55.5189 15.27587843 20201
